# From MPC106342
C/1995 O1 (Hale-Bopp),e,89.0114,283.3154,130.5570,179.3305,0.0004104,0.99494308,0.0000,03/29.7242/1997,2000,g -2.0,4.0
# From NK 1615
P/1996 R2 (Lagerkvist),e,2.6003,40.0328,333.3100,3.775051,0.1343754,0.31402145,86.3191,11/15.0/2020,2000,g 11.5,4.0
# From MPC 30063
P/1997 B1 (Kobayashi),e,12.3396,328.8850,183.3610,8.567547,0.0393024,0.76010490,340.3957,11/15.0/2020,2000,g 15.0,2.0
# From MPC 75703
P/1998 VS24 (LINEAR),e,5.0252,159.0310,244.6800,4.529674,0.1022360,0.24195954,105.5079,11/15.0/2020,2000,g 13.0,2.0
# From NK 731
P/1999 RO28 (LONEOS),e,7.5666,137.8833,231.2701,3.426790,0.1553721,0.67204622,78.9133,11/15.0/2020,2000,g 20.0,2.0
# From MPC 75704
P/1999 XN120 (Catalina),e,5.0297,285.2956,161.9036,4.178980,0.1153715,0.21035704,144.5928,11/15.0/2020,2000,g 13.5,2.0
# From NK 744
P/2000 R2 (LINEAR),e,11.6844,160.2947,176.5148,3.466058,0.1527391,0.53155961,78.9038,11/15.0/2020,2000,g 18.0,4.0
# From MPC 43019
P/2001 H5 (NEAT),e,8.3674,328.6852,224.8692,6.098134,0.0654498,0.59869271,121.3145,11/15.0/2020,2000,g 12.0,4.0
# From MPC 75704
P/2001 Q6 (NEAT),e,56.9021,22.1285,42.9464,7.950506,0.0439655,0.82280688,307.1927,11/15.0/2020,2000,g 13.5,4.0
# From MPC 47727
P/2002 EJ57 (LINEAR),e,4.9761,330.3289,167.3622,6.473231,0.0598442,0.59281744,52.6922,11/15.0/2020,2000,g 12.5,4.0
# From MPEC 2020-SI8
P/2002 T5 (LINEAR),e,30.8529,123.0884,326.7668,7.005365,0.0531567,0.43790343,339.0131,11/15.0/2020,2000,g  8.0,4.0
# From MPC109588
P/2002 T6 (NEAT-LINEAR),e,10.8332,206.4611,219.5903,7.670044,0.0463989,0.56003483,297.5154,11/15.0/2020,2000,g 10.5,4.0
# From MPC 50354
P/2003 F2 (NEAT),e,11.6047,359.0744,191.9161,6.489737,0.0596161,0.54219750,21.9818,11/15.0/2020,2000,g 16.5,2.0
# From MPC 50139
P/2003 QX29 (NEAT),e,11.3898,264.5890,37.3997,8.032840,0.0432913,0.47296732,285.3696,11/15.0/2020,2000,g  8.5,4.0
# From MPC105235
P/2003 T12 (SOHO),e,11.0168,174.5734,219.7698,2.586217,0.2369773,0.76964158,45.5326,11/15.0/2020,2000,g 17.0,4.0
# From MPC 82312
P/2004 A1 (LONEOS),e,10.5516,124.8476,21.4233,7.955668,0.0439227,0.30937460,260.7414,11/15.0/2020,2000,g  6.5,4.0
# From MPC 54558
P/2004 DO29 (Spacewatch-LINEAR),e,14.5317,147.3801,40.7248,7.282689,0.0501495,0.44133860,294.9230,11/15.0/2020,2000,g 13.5,2.0
# From MPC 54823
P/2004 FY140 (LINEAR),e,2.1348,326.7615,242.4611,4.901635,0.0908223,0.16862912,176.1906,11/15.0/2020,2000,g 12.5,2.0
# From MPC 53304
P/2004 R3 (LINEAR-NEAT),e,12.8258,305.4806,38.7262,4.793891,0.0939014,0.26129321,330.2669,11/15.0/2020,2000,g 14.5,4.0
# From MPC 55521
P/2004 V3 (Siding Spring),e,50.4325,356.1155,322.2987,7.144144,0.0516153,0.44632292,303.1235,11/15.0/2020,2000,g 11.5,4.0
# From MPC 75705
P/2004 V5 (LINEAR-Hill),e,19.3452,47.7695,87.7882,7.975717,0.0437572,0.44353779,251.9775,11/15.0/2020,2000,g  8.0,4.0
# From MPC 54164
P/2005 E1 (Tubbiolo),e,4.2637,335.5726,194.1254,7.037416,0.0527940,0.37519101,304.6202,11/15.0/2020,2000,g 10.0,4.0
# From MPC 54823
P/2005 GF8 (LONEOS),e,1.1936,314.8345,285.1158,5.862668,0.0694322,0.51816367,28.6361,11/15.0/2020,2000,g 11.5,4.0
# From MPC 79019
P/2005 J1 (McNaught),e,31.7666,268.8032,338.9569,3.569768,0.1461316,0.56988553,111.6868,11/15.0/2020,2000,g 16.5,4.0
# From MPC 74246
P/2005 L1 (McNaught),e,7.7386,138.2476,149.6964,3.975237,0.1243539,0.20935848,316.1509,11/15.0/2020,2000,g  9.5,4.0
# From MPC 75706
P/2005 S2 (Skiff),e,3.1357,161.1959,229.1600,8.017377,0.0434166,0.19687231,230.3478,11/15.0/2020,2000,g  7.5,4.0
# From MPC 75706
P/2005 SB216 (LONEOS),e,24.0720,1.2399,83.3942,7.127066,0.0518010,0.46330735,261.9856,11/15.0/2020,2000,g 12.0,2.0
# From MPC 55717
P/2005 T2 (Christensen),e,8.2927,260.1573,58.8097,3.845922,0.1306783,0.41640520,28.8324,11/15.0/2020,2000,g 14.5,4.0
# From MPC 73461
P/2005 T3 (Read),e,6.2247,27.7437,7.0351,7.577227,0.0472540,0.17393505,260.4046,11/15.0/2020,2000,g  9.0,4.0
# From MPC 73461
P/2005 T4 (SWAN),e,160.1801,25.6670,41.5713,9.360872,0.0344136,0.92992825,190.1878,11/15.0/2020,2000,g 15.0,4.0
# From MPC 75706
P/2005 T5 (Broughton),e,21.3524,57.0075,304.5232,7.291651,0.0500571,0.55197948,276.2685,11/15.0/2020,2000,g 11.0,4.0
# From MPC 56954
P/2005 W3 (Kowalski),e,16.4173,210.0919,200.6772,6.332312,0.0618530,0.54351785,340.8428,11/15.0/2020,2000,g 12.0,4.0
# From MPC 75706
P/2005 XA54 (LONEOS-Hill),e,17.1188,143.6711,15.1380,6.052307,0.0661946,0.71018075,355.0166,11/15.0/2020,2000,g 14.0,4.0
# From MPC 75706
P/2005 Y2 (McNaught),e,19.0956,94.5119,194.0429,6.383079,0.0611165,0.47034126,1.5395,11/15.0/2020,2000,g  9.0,4.0
# From MPC 56954
P/2006 F4 (Spacewatch),e,12.4008,183.8824,31.1692,3.527167,0.1487870,0.33934368,69.9781,11/15.0/2020,2000,g 15.0,4.0
# From MPC 75707
P/2006 HR30 (Siding Spring),e,31.8302,309.9015,117.2915,7.811243,0.0451465,0.84200774,229.5682,11/15.0/2020,2000,g 11.0,4.0
# From MPC 75707
P/2006 S4 (Christensen),e,39.5360,36.0956,305.1510,6.310852,0.0621687,0.50795446,333.5332,11/15.0/2020,2000,g 11.0,4.0
# From MPC 75707
P/2007 A2 (Christensen),e,26.4877,300.9067,186.7609,6.324499,0.0619676,0.55755633,313.8702,11/15.0/2020,2000,g 13.5,4.0
# From MPC 59319
P/2007 B1 (Christensen),e,12.3763,77.6668,46.7528,5.819563,0.0702051,0.58092393,354.9704,11/15.0/2020,2000,g 13.5,4.0
# From MPC 75707
P/2007 C2 (Catalina),e,8.6601,275.6343,179.8851,6.994495,0.0532807,0.46995093,255.6144,11/15.0/2020,2000,g 10.0,4.0
# From MPC 82314
P/2007 K2 (Gibbs),e,7.6368,188.6470,347.4712,7.262476,0.0503590,0.68337323,247.3257,11/15.0/2020,2000,g 14.0,4.0
# From MPC 60925
P/2007 Q2 (Gilmore),e,10.2022,172.1604,162.7778,5.655865,0.0732749,0.67031402,359.1224,11/15.0/2020,2000,g 16.0,4.0
# From MPEC 2020-UQ9
P/2007 R2 (Gibbs),e,1.2135,11.4736,352.3577,3.573020,0.1459321,0.54188978,8.8002,11/15.0/2020,2000,g 17.0,4.0
# From MPC 75708
P/2007 R4 (Garradd),e,20.2267,87.2223,282.6676,5.925787,0.0683258,0.66996962,333.4299,11/15.0/2020,2000,g 14.5,4.0
# From MPC 73462
P/2007 S1 (Zhao),e,5.9631,141.3806,245.7525,3.812547,0.1323979,0.33963919,268.2970,11/15.0/2020,2000,g 13.0,4.0
# From MPC 61994
P/2007 T2 (Kowalski),e,9.7446,3.3753,359.6356,3.047221,0.1852884,0.78521315,156.6224,11/15.0/2020,2000,g 18.5,4.0
# From MPEC 2020-UR0
P/2007 VQ11 (Catalina),e,12.3200,163.8180,277.6602,5.425989,0.0779805,0.50326125,4.6529,11/15.0/2020,2000,g 12.0,4.0
# From MPC 75708
P/2008 CL94 (Lemmon),e,8.3474,33.3325,80.5366,6.160713,0.0644552,0.12024795,339.9529,11/15.0/2020,2000,g  8.0,4.0
# From MPC 75709
P/2008 L2 (Hill),e,25.8561,218.0051,141.2102,6.028640,0.0665848,0.61300437,299.5895,11/15.0/2020,2000,g 12.5,4.0
# From MPC 64114
P/2008 O3 (Boattini),e,32.2475,47.5992,341.0860,8.223388,0.0417953,0.69502684,190.5636,11/15.0/2020,2000,g 13.0,4.0
# From MPC 75709
P/2008 QP20 (LINEAR-Hill),e,7.5212,322.0807,75.6419,3.551887,0.1472365,0.49234422,299.1735,11/15.0/2020,2000,g 15.5,4.0
# From MPC 66204
P/2008 WZ96 (LINEAR),e,7.1125,56.4957,341.8502,3.490973,0.1511069,0.47047407,316.9888,11/15.0/2020,2000,g 13.5,4.0
# From MPC 75710
P/2008 Y3 (McNaught),e,38.7627,262.7898,238.2734,8.045799,0.0431867,0.44554902,187.5048,11/15.0/2020,2000,g  8.5,4.0
# From MPC 75710
P/2009 B1 (Boattini),e,22.2192,297.0914,128.8984,6.735703,0.0563806,0.63463332,244.0536,11/15.0/2020,2000,g 13.0,4.0
# From MPC 75710
P/2009 O3 (Hill),e,16.2633,183.7175,154.3856,7.770758,0.0454998,0.68750969,190.9645,11/15.0/2020,2000,g 12.5,4.0
# From MPC 98557
P/2009 Q1 (Hill),e,14.5054,173.9588,157.1248,5.520009,0.0759966,0.49475069,317.8087,11/15.0/2020,2000,g 11.5,4.0
# From MPEC 2020-SI8
P/2009 Q4 (Boattini),e,11.0152,127.4646,320.2339,3.127950,0.1781617,0.58257504,352.5626,11/15.0/2020,2000,g 15.5,4.0
# From MPC 68902
P/2009 Q5 (McNaught),e,40.9728,160.2617,209.0192,7.438260,0.0485844,0.60863509,198.7904,11/15.0/2020,2000,g 10.0,4.0
# From MPC112389
P/2009 T2 (La Sagra),e,27.5446,215.7885,216.4244,7.724453,0.0459095,0.76505911,182.5146,11/15.0/2020,2000,g 14.0,4.0
# From MPC 75711
P/2009 U4 (McNaught),e,10.0810,55.3586,259.8427,5.083053,0.0860037,0.67607545,353.2819,11/15.0/2020,2000,g 14.0,4.0
# From MPC105235
P/2009 WX51 (Catalina),e,9.5953,31.6847,118.0661,3.080079,0.1823314,0.74026704,359.7520,11/15.0/2020,2000,g 19.0,2.0
# From MPC 74247
P/2009 Y2 (Kowalski),e,29.9293,262.0241,172.1734,6.548940,0.0588095,0.63585843,229.9475,11/15.0/2020,2000,g 13.0,4.0
# From MPC 75711
P/2010 A3 (Hill),e,14.8660,64.0943,41.9344,6.075460,0.0658166,0.73325187,256.0220,11/15.0/2020,2000,g 14.0,4.0
# From MPC 72851
P/2010 A5 (LINEAR),e,5.7979,277.6638,307.0878,5.083560,0.0859908,0.66503382,331.0655,11/15.0/2020,2000,g 13.0,4.0
# From MPC105235
P/2010 B2 (WISE),e,8.9306,0.8481,155.9190,3.109989,0.1797074,0.47989999,356.4836,11/15.0/2020,2000,g 17.0,4.0
# From MPC 75008
P/2010 C1 (Scotti),e,9.1282,141.8862,3.7851,7.102743,0.0520673,0.25861517,209.1218,11/15.0/2020,2000,g  9.5,4.0
# From MPC 75008
P/2010 D2 (WISE),e,57.0848,319.8918,120.0987,6.715556,0.0566345,0.45084923,222.2511,11/15.0/2020,2000,g 16.0,4.0
# From MPC 75009
P/2010 E2 (Jarnac),e,15.4065,177.8250,8.3708,8.637833,0.0388237,0.72027388,150.5668,11/15.0/2020,2000,g 14.0,4.0
# From MPC 72851
P/2010 H2 (Vales),e,14.2729,64.2074,128.2023,3.834498,0.1312627,0.19565176,152.6365,11/15.0/2020,2000,g  6.0,4.0
# From MPC 70361
P/2010 H3 (SOHO),e,23.0918,77.1111,26.1290,3.060009,0.1841281,0.98548930,0.0000,02/07.9633/2021,2000,g 20.0,2.0
# From MPC 73463
P/2010 H4 (Scotti),e,2.3190,44.7478,179.5611,6.589497,0.0582674,0.26759161,221.4484,11/15.0/2020,2000,g 10.5,4.0
# From MPC 74637
P/2010 H5 (Scotti),e,14.0674,24.8092,175.2870,7.158469,0.0514605,0.15370134,199.2489,11/15.0/2020,2000,g 13.0,2.0
# From MPC 98558
P/2010 J3 (McMillan),e,13.2893,106.4091,157.5836,8.970018,0.0366872,0.72727531,136.8415,11/15.0/2020,2000,g 11.0,4.0
# From MPC 84315
P/2010 JC81 (WISE),e,38.7164,30.8419,12.4438,8.111295,0.0426647,0.77667109,149.2371,11/15.0/2020,2000,g  9.0,4.0
# From MPC 74248
P/2010 T2 (PANSTARRS),e,7.9166,59.0590,353.7157,5.512935,0.0761430,0.32152784,266.5656,11/15.0/2020,2000,g 11.5,4.0
# From MPC 98558
